FORMOSAT 7-3            
1 44343U 19036E   26068.82630502  .00006445  00000+0  37650-3 0  9997
2 44343  23.9981 141.9797 0001061 150.4425 209.6139 15.08933962368215
STARLINK-4153           
1 53037U 22076BD  26068.27906744  .00000354  00000+0  40334-4 0  9995
2 53037  53.2173  75.9618 0001240  83.7396 276.3738 15.08840886203065
